ONEWEB-0628             
1 55169U 23004AF  24301.47595171  .00000364  00000+0  97762-3 0  9990
2 55169  87.8843 109.6716 0001186 120.8919 239.2326 13.12439473 89632
ONEWEB-0629             
1 55170U 23004AG  24301.49583783 -.00000584  00000+0 -15386-2 0  9997
2 55170  87.9060 124.9352 0001623 104.9084 255.2227 13.17640544 88875
ONEWEB-0631             
1 55171U 23004AH  24301.49770549  .00000150  00000+0  34677-3 0  9998
2 55171  87.9072  94.3642 0001238  69.8085 290.3180 13.18683604 90903
ONEWEB-0709             
1 55172U 23004AJ  24301.49544247 -.00000217  00000+0 -64865-3 0  9991
2 55172  87.8895 140.1736 0001898  50.5163 309.6132 13.11414930 87539
ONEWEB-0710             
1 55173U 23004AK  24301.51018689  .00000130  00000+0  30058-3 0  9990
2 55173  87.9071 124.9540 0001398  88.1543 271.9749 13.17650929 88873
ONEWEB-0711             
1 55174U 23004AL  24301.54292064  .00000544  00000+0  15003-2 0  9996
2 55174  87.8896 140.1334 0000780 105.5968 254.5246 13.11416381 87502
ONEWEB-0713             
1 55175U 23004AM  24301.48527174  .00000533  00000+0  14673-2 0  9993
2 55175  87.8896 140.1522 0001350  91.0136 269.1146 13.11413791 87482
ONEWEB-0715             
1 55176U 23004AN  24301.48018802  .00000438  00000+0  12001-2 0  9994
2 55176  87.8895 140.1538 0001400  67.8759 292.2517 13.11414247 87528
